<?xml version="1.0" encoding="UTF-8"?>
<kml xmlns="http://www.opengis.net/kml/2.2">
<Document>
<Placemark>
<name>Reference Track</name>
<Style><LineStyle><color>ffff0000</color><width>6</width></LineStyle></Style>
<LineString><tessellate>1</tessellate><coordinates>
77.32854666666667,28.42385,0 77.32844333333334,28.424218333333336,0 77.32834,28.424586666666663,0 77.32823499999999,28.42495333333333,0 77.32813,28.425318333333333,0 77.328025,28.425683333333335,0 77.32797333333333,28.425863333333336,0 77.32787166666667,28.42622666666667,0 77.32776833333334,28.42659,0 77.32766333333333,28.42695666666667,0 77.32755166666668,28.427323333333334,0 77.32743,28.427688333333336,0 77.32730666666666,28.42805333333333,0 </coordinates></LineString>
</Placemark>
<Placemark>
<name>Reference Track</name>
<Style><LineStyle><color>ffff0000</color><width>6</width></LineStyle></Style>
<LineString><tessellate>1</tessellate><coordinates>
77.32667666666666,28.42987833333333,0 77.326545,28.430241666666667,0 77.32641,28.430603333333337,0 77.326275,28.430963333333338,0 77.32615000000001,28.43132666666667,0 77.326035,28.431691666666666,0 77.32592500000001,28.43205833333333,0 77.32582000000001,28.432426666666668,0 77.32571833333333,28.432793333333333,0 77.325615,28.433159999999997,0 77.32551166666667,28.433528333333335,0 77.32541166666667,28.43389666666667,0 77.32536,28.434081666666664,0 77.325255,28.43445166666667,0 77.32514833333333,28.434821666666668,0 77.325045,28.435191666666665,0 77.32499333333334,28.435375,0 77.32494166666667,28.435560000000002,0 77.32483666666667,28.43592833333333,0 77.32473499999999,28.436295000000005,0 77.32442666666667,28.437389999999997,0 77.32432333333333,28.43775833333333,0 77.32427166666666,28.437943333333337,0 77.32416833333333,28.438314999999996,0 77.32406833333333,28.438688333333335,0 77.32396666666666,28.43906,0 77.32386166666667,28.439431666666664,0 77.32375666666667,28.43980333333333,0 77.32365666666666,28.44017666666667,0 77.323555,28.44054833333333,0 77.32350833333334,28.440733333333334,0 77.32341833333334,28.441106666666663,0 77.32332333333333,28.44147666666667,0 77.32327333333333,28.441661666666665,0 77.32317166666667,28.44203,0 77.32307166666666,28.4424,0 77.322975,28.442776666666667,0 77.32287166666667,28.443158333333333,0 77.32277,28.44354,0 77.32266833333333,28.443921666666665,0 77.32256666666667,28.444305,0 77.32246833333333,28.444688333333335,0 77.322365,28.44507,0 77.32231333333334,28.44526,0 77.32219833333333,28.44563833333333,0 77.32205,28.44600666666667,0 77.32185,28.446355,0 77.32159,28.446673333333333,0 77.32143833333333,28.446818333333333,0 77.32111833333333,28.447091666666665,0 77.32078833333334,28.447356666666664,0 77.32046166666667,28.447625000000002,0 77.32014833333332,28.44790833333333,0 77.32,28.44805666666667,0 77.319725,28.44836666666667,0 77.31960333333333,28.44853333333333,0 77.31939333333334,28.448883333333335,0 77.31922666666667,28.449248333333337,0 77.31910500000001,28.449630000000003,0 77.319035,28.450021666666665,0 77.31900666666667,28.45041666666667,0 77.31902333333333,28.450813333333333,0 77.31906666666667,28.451206666666668,0 77.31912166666666,28.4516,0 77.319175,28.451993333333334,0 77.31922833333333,28.452386666666666,0 77.31927666666667,28.45278,0 77.31932666666667,28.45317166666667,0 77.31937333333333,28.453565000000005,0 77.31940333333334,28.45396,0 77.31940833333333,28.454355000000003,0 77.31938,28.454748333333335,0 77.31932166666667,28.45514166666667,0 77.31924000000001,28.45553166666667,0 77.31919333333333,28.455724999999997,0 77.31909333333333,28.45611333333333,0 77.318995,28.4565,0 77.31894666666668,28.456691666666664,0 77.31885000000001,28.457078333333335,0 77.31875333333333,28.457465000000003,0 77.318655,28.45785166666667,0 77.31855333333333,28.458235,0 77.31844833333334,28.458616666666664,0 77.31834333333333,28.45900166666667,0 77.31823833333333,28.459386666666667,0 77.31812833333333,28.459770000000002,0 77.31807333333333,28.459960000000002,0 77.317965,28.460339999999995,0 77.31786166666667,28.46071833333333,0 77.31776166666667,28.46109666666667,0 77.31771166666667,28.46128666666667,0 77.31761166666666,28.461668333333332,0 77.317515,28.46205166666667,0 77.31742,28.46244,0 77.31733,28.46283,0 77.31725,28.46322,0 77.31718333333333,28.463611666666665,0 77.317155,28.463808333333336,0 77.31710333333334,28.46420333333333,0 77.31706333333334,28.464600000000004,0 77.31703,28.464996666666668,0 77.31699833333333,28.465391666666665,0 77.316965,28.465784999999997,0 77.31693166666668,28.466178333333332,0 77.31689833333333,28.466571666666663,0 77.31688333333334,28.466768333333334,0 77.31685666666667,28.467158333333334,0 77.31683166666667,28.46755,0 77.31680833333333,28.46794166666667,0 77.316795,28.46833333333333,0 77.316785,28.468723333333333,0 77.31677833333333,28.469113333333333,0 77.31677166666667,28.469506666666668,0 77.31676666666667,28.469703333333335,0 77.31675166666668,28.470098333333333,0 77.31672499999999,28.470494999999996,0 77.31668833333333,28.47089,0 77.31664500000001,28.471284999999998,0 77.316595,28.47168333333333,0 77.31654666666667,28.472078333333336,0 77.31649833333333,28.47247333333333,0 77.31645499999999,28.472868333333334,0 77.31640999999999,28.473261666666666,0 77.31638833333334,28.47345833333333,0 77.31634666666667,28.473851666666665,0 77.31630666666666,28.474243333333334,0 </coordinates></LineString>
</Placemark>
<Placemark>
<name>Reference Track</name>
<Style><LineStyle><color>ffff0000</color><width>6</width></LineStyle></Style>
<LineString><tessellate>1</tessellate><coordinates>
77.31619,28.475408333333334,0 77.316155,28.475796666666664,0 77.31611833333334,28.476186666666663,0 </coordinates></LineString>
</Placemark>
<Placemark>
<name>Recorded Track</name>
<Style><LineStyle><color>ff0000ff</color><width>6</width></LineStyle></Style>
<LineString><tessellate>1</tessellate><coordinates>
77.30332,28.392279999999996,0 77.30403,28.39233,0 77.30474,28.392369999999996,0 77.30546,28.39242,0 </coordinates></LineString>
</Placemark>
</Document></kml>