<?xml version="1.0" encoding="UTF-8"?>
<kml xmlns="http://www.opengis.net/kml/2.2">
<Document>
<Placemark>
<name>Reference Track</name>
<Style><LineStyle><color>ffff0000</color><width>6</width></LineStyle></Style>
<LineString><tessellate>1</tessellate><coordinates>
77.33257333333333,28.408560000000005,0 77.33253666666666,28.408693333333336,0 77.332465,28.408965,0 77.33239333333333,28.40922666666667,0 77.33232500000001,28.409474999999997,0 </coordinates></LineString>
</Placemark>
<Placemark>
<name>Recorded Track</name>
<Style><LineStyle><color>ff0000ff</color><width>6</width></LineStyle></Style>
<LineString><tessellate>1</tessellate><coordinates>
77.31552,28.360059999999997,0 77.31559,28.359159999999996,0 77.31567,28.35827,0 </coordinates></LineString>
</Placemark>
</Document></kml>