<?xml version="1.0" encoding="UTF-8"?>
<kml xmlns="http://www.opengis.net/kml/2.2">
  <Document>
    <name>Nehruoff_SEC59off</name>
    <description>Converted from other format</description>
    <Placemark>
      <name>Track</name>
      <LineString>
        <coordinates>77.30499,28.39155,208.6 77.30501,28.39139,208 77.30591,28.39147,205.3 77.30584,28.39203,205.5 77.30577,28.39216,205.8 77.30565,28.39222,206.3 77.30542,28.39225,207 77.305,28.39226,208.3 77.30414,28.39221,206 77.30328,28.39216,205.1 77.30327,28.39228,205 77.30332,28.39228,205 77.30332,28.39228,205 77.30403,28.39233,205.5 77.30474,28.39237,207.3 77.30546,28.39242,206.9 77.30559,28.3925,206.6 77.30564,28.39258,206.5 77.30573,28.39264,206.4 77.30583,28.39267,206.2 77.30595,28.39266,206.4 77.30604,28.39262,206.6 77.30614,28.39252,207.1 77.30634,28.3925,207.8 77.307,28.39253,207.5 77.30799,28.39259,207.1 77.30899,28.39264,206.7 77.30999,28.39269,206.3 77.31075,28.39274,206.1 77.3115,28.39278,204.7 77.31226,28.39283,204.8 77.31259,28.39284,204.8 77.31265,28.39284,204.7 77.31274,28.39202,203.9 77.31282,28.39119,203.9 77.31291,28.39036,205.8 77.31299,28.38954,206.2 77.31296,28.38906,205.2 77.31293,28.38859,204.4 77.31301,28.38778,204.9 77.31308,28.38696,202.8 77.31316,28.38615,200.2 77.31323,28.38534,200.7 77.3133,28.38452,203.9 77.31338,28.38371,206.1 77.31345,28.3829,207 77.31352,28.38208,206.5 77.3136,28.3812,206 77.31367,28.38032,205.4 77.31374,28.37944,204.9 77.31381,28.37856,204.4 77.31388,28.37767,203.9 77.31396,28.37679,203.4 77.31403,28.37591,202.8 77.31411,28.37542,202.6 77.3142,28.37492,202.3 77.31424,28.37452,202 77.31432,28.37389,201.7 77.3144,28.37325,201.8 77.31448,28.37261,205.5 77.31451,28.37215,205.8 77.31455,28.37168,205.7 77.31463,28.37078,205.5 77.3147,28.36989,205.3 77.31478,28.36899,205.2 77.31485,28.3681,205 77.31493,28.3672,204.8 77.315,28.36631,204.7 77.31507,28.36541,204.5 77.31515,28.36452,204.4 77.31522,28.36363,204.8 77.3153,28.36273,204.5 77.31537,28.36184,201.9 77.31545,28.36095,203 77.31552,28.36006,205.4 77.31559,28.35916,204.4 77.31567,28.35827,205.3 77.31574,28.35738,206.3 77.31582,28.35649,206.8 77.31589,28.35559,206.2 77.31597,28.3547,206.3 77.31604,28.35381,205.9 77.3161,28.35307,203.2 77.31616,28.35233,199 77.31622,28.35159,202.2 77.31627,28.35085,198.6 77.31633,28.35011,198.6 77.31635,28.34949,200.3 77.31637,28.34887,201.8 77.31639,28.34825,202.6 77.31643,28.34773,203 77.31645,28.34747,203.2 77.3165,28.34685,203.8 77.31655,28.34623,203.5 77.3166,28.3456,203.8 77.31671,28.34477,205.5 77.31681,28.34393,203.8 77.31688,28.34357,203.7 77.31705,28.34269,203.4 77.31722,28.34182,203.2 77.31725,28.34156,203.2 77.31725,28.34128,203.1 77.3172,28.34097,203 77.31697,28.34021,202.8 77.31675,28.33946,202.6 77.31653,28.33871,202.5 77.3163,28.33795,202.3 77.3162,28.33756,202.2 77.31614,28.33713,202.1 77.316,28.33627,201.9 77.31586,28.33542,201 77.31572,28.33456,200.3 77.31549,28.33371,200.5 77.3153,28.33311,200.4 77.31511,28.33251,198.5 77.31504,28.33232,198.5 77.31484,28.33165,198.7 77.31464,28.33099,198.9 77.31444,28.33033,199 77.31424,28.32966,199.2 77.31398,28.32902,199.4 77.31361,28.3282,199.6 77.31324,28.32738,199.8 77.31287,28.32656,200.1 77.3125,28.32574,200.3 77.31213,28.32492,200.5 77.31176,28.3241,200.7 77.3114,28.32336,201 77.31105,28.32263,201.2 77.31074,28.32193,203.9 77.31042,28.32124,202.2 77.3101,28.32055,203 77.30979,28.31985,202.6 77.30946,28.31917,201.9 77.30914,28.31848,203 77.3088,28.31775,203.3 77.30846,28.31703,202.4 77.30811,28.3163,202.8 77.30777,28.31558,203 77.30741,28.31483,203.5 77.30704,28.31407,201.8 77.30668,28.31332,202 77.30673,28.31314,201.7 77.30641,28.3125,202.2 77.3061,28.31186,203.7 77.30578,28.31123,203.7 77.30546,28.31059,202.3 77.30522,28.31009,200.6 77.30498,28.30959,200.1 77.30463,28.30893,201.6 77.30526,28.30892,200.6 77.3059,28.30891,200.8 77.3059,28.3084,200 77.30649,28.3084,199.5 77.30708,28.30841,199.4 77.30708,28.30807,198.5</coordinates>
      </LineString>
    </Placemark>
  </Document>
</kml>