<?xml version="1.0" encoding="UTF-8"?>
<kml xmlns="http://www.opengis.net/kml/2.2">
<Document>
<Placemark>
<name>Reference Track</name>
<Style><LineStyle><color>ffff0000</color><width>6</width></LineStyle></Style>
<LineString><tessellate>1</tessellate><coordinates>
77.31844833333334,28.458616666666664,0 77.31834333333333,28.45900166666667,0 77.31823833333333,28.459386666666667,0 77.31812833333333,28.459770000000002,0 77.31807333333333,28.459960000000002,0 77.317965,28.460339999999995,0 77.31786166666667,28.46071833333333,0 77.31776166666667,28.46109666666667,0 77.31771166666667,28.46128666666667,0 77.31761166666666,28.461668333333332,0 77.317515,28.46205166666667,0 77.31742,28.46244,0 77.31733,28.46283,0 77.31725,28.46322,0 77.31718333333333,28.463611666666665,0 77.317155,28.463808333333336,0 77.31710333333334,28.46420333333333,0 77.31706333333334,28.464600000000004,0 77.31703,28.464996666666668,0 77.31699833333333,28.465391666666665,0 77.316965,28.465784999999997,0 77.31693166666668,28.466178333333332,0 77.31689833333333,28.466571666666663,0 77.31688333333334,28.466768333333334,0 77.31685666666667,28.467158333333334,0 77.31683166666667,28.46755,0 77.31680833333333,28.46794166666667,0 77.316795,28.46833333333333,0 77.316785,28.468723333333333,0 77.31677833333333,28.469113333333333,0 77.31677166666667,28.469506666666668,0 77.31676666666667,28.469703333333335,0 77.31675166666668,28.470098333333333,0 77.31672499999999,28.470494999999996,0 77.31668833333333,28.47089,0 77.31664500000001,28.471284999999998,0 77.316595,28.47168333333333,0 77.31654666666667,28.472078333333336,0 77.31649833333333,28.47247333333333,0 77.31645499999999,28.472868333333334,0 77.31640999999999,28.473261666666666,0 77.31638833333334,28.47345833333333,0 77.31634666666667,28.473851666666665,0 77.31630666666666,28.474243333333334,0 </coordinates></LineString>
</Placemark>
<Placemark>
<name>Reference Track</name>
<Style><LineStyle><color>ffff0000</color><width>6</width></LineStyle></Style>
<LineString><tessellate>1</tessellate><coordinates>
77.31619,28.475408333333334,0 77.316155,28.475796666666664,0 77.31611833333334,28.476186666666663,0 </coordinates></LineString>
</Placemark>
<Placemark>
<name>Recorded Track</name>
<Style><LineStyle><color>ff0000ff</color><width>6</width></LineStyle></Style>
<LineString><tessellate>1</tessellate><coordinates>
77.31301,28.38778,0 77.31308,28.38696,0 77.31316,28.386149999999997,0 77.31323,28.385339999999996,0 77.31411,28.375420000000002,0 77.3142,28.374919999999996,0 77.31424,28.37452,0 77.31432,28.37389,0 77.31439999999999,28.37325,0 77.31448,28.37261,0 </coordinates></LineString>
</Placemark>
<Placemark>
<name>Video @ 1044102919044</name>
<description><![CDATA[<video width="400" controls><source src="videos/vid_1773378478394.mp4" type="video/mp4"></video><br/><b>Description:</b> video1]]></description>
<Point><coordinates>77.31323,28.385339999999996,0</coordinates></Point>
</Placemark>
</Document></kml>