<?xml version="1.0" encoding="UTF-8" standalone="yes"?>
<kml xmlns="http://www.opengis.net/kml/2.2">
  <Document>
    <Placemark>
      <name>Reference Track</name>
      <Style>
        <LineStyle>
          <color>ffff0000</color>
          <width>6</width>
        </LineStyle>
      </Style>
      <LineString>
        <tessellate>1</tessellate>
        <coordinates>
77.32307166666666,28.4424,0 77.322975,28.442776666666667,0 77.32287166666667,28.443158333333333,0 77.32277,28.44354,0 77.32266833333333,28.443921666666665,0 77.32256666666667,28.444305,0 77.32246833333333,28.444688333333335,0 77.322365,28.44507,0 77.32231333333334,28.44526,0 77.32219833333333,28.44563833333333,0 77.32205,28.44600666666667,0 77.32185,28.446355,0 77.32159,28.446673333333333,0 77.32143833333333,28.446818333333333,0 77.32111833333333,28.447091666666665,0 77.32078833333334,28.447356666666664,0 77.32046166666667,28.447625000000002,0 77.32014833333332,28.44790833333333,0 77.32,28.44805666666667,0 77.319725,28.44836666666667,0 77.31960333333333,28.44853333333333,0 77.31939333333334,28.448883333333335,0 77.31922666666667,28.449248333333337,0 77.31910500000001,28.449630000000003,0 77.319035,28.450021666666665,0 77.31900666666667,28.45041666666667,0 77.31902333333333,28.450813333333333,0 77.31906666666667,28.451206666666668,0 77.31912166666666,28.4516,0 77.319175,28.451993333333334,0 77.31922833333333,28.452386666666666,0 77.31927666666667,28.45278,0 77.31932666666667,28.45317166666667,0 77.31937333333333,28.453565000000005,0 77.31940333333334,28.45396,0 77.31940833333333,28.454355000000003,0 77.31938,28.454748333333335,0 77.31932166666667,28.45514166666667,0 77.31924000000001,28.45553166666667,0 77.31919333333333,28.455724999999997,0 77.31909333333333,28.45611333333333,0 77.318995,28.4565,0 77.31894666666668,28.456691666666664,0 77.31885000000001,28.457078333333335,0 77.31875333333333,28.457465000000003,0 77.318655,28.45785166666667,0 77.31855333333333,28.458235,0 77.31844833333334,28.458616666666664,0 </coordinates>
      </LineString>
    </Placemark>
    <Placemark>
      <name>Recorded Track</name>
      <Style>
        <LineStyle>
          <color>ff0000ff</color>
          <width>6</width>
        </LineStyle>
      </Style>
      <LineString>
        <tessellate>1</tessellate>
        <coordinates>
77.30614,28.392519999999998,0 77.30634,28.392500000000002,0 77.307,28.392530000000004,0 77.30799,28.392590000000002,0 77.31226,28.392830000000004,0 77.31259,28.39284,0 77.31265,28.39284,0 77.31274,28.392020000000002,0 77.31282,28.391189999999998,0 </coordinates>
      </LineString>
    </Placemark>
    <Placemark>
      <name>Photo @ 1044102919547</name>
      <description>&lt;img src="images/img_1773378919718.jpg" width="400"/&gt;&lt;br/&gt;&lt;b&gt;Description:&lt;/b&gt; img1</description>
      <Point>
        <coordinates>77.30799,28.392590000000002,0</coordinates>
      </Point>
    </Placemark>
    <Placemark>
      <name>Reference Track</name>
      <Style>
        <LineStyle>
          <color>ffff0000</color>
          <width>6</width>
        </LineStyle>
      </Style>
      <LineString>
        <tessellate>1</tessellate>
        <coordinates>
77.31844833333334,28.458616666666664,0 77.31834333333333,28.45900166666667,0 77.31823833333333,28.459386666666667,0 77.31812833333333,28.459770000000002,0 77.31807333333333,28.459960000000002,0 77.317965,28.460339999999995,0 77.31786166666667,28.46071833333333,0 77.31776166666667,28.46109666666667,0 77.31771166666667,28.46128666666667,0 77.31761166666666,28.461668333333332,0 77.317515,28.46205166666667,0 77.31742,28.46244,0 77.31733,28.46283,0 77.31725,28.46322,0 77.31718333333333,28.463611666666665,0 77.317155,28.463808333333336,0 77.31710333333334,28.46420333333333,0 77.31706333333334,28.464600000000004,0 77.31703,28.464996666666668,0 77.31699833333333,28.465391666666665,0 77.316965,28.465784999999997,0 77.31693166666668,28.466178333333332,0 77.31689833333333,28.466571666666663,0 77.31688333333334,28.466768333333334,0 77.31685666666667,28.467158333333334,0 77.31683166666667,28.46755,0 77.31680833333333,28.46794166666667,0 77.316795,28.46833333333333,0 77.316785,28.468723333333333,0 77.31677833333333,28.469113333333333,0 77.31677166666667,28.469506666666668,0 77.31676666666667,28.469703333333335,0 77.31675166666668,28.470098333333333,0 77.31672499999999,28.470494999999996,0 77.31668833333333,28.47089,0 77.31664500000001,28.471284999999998,0 77.316595,28.47168333333333,0 77.31654666666667,28.472078333333336,0 77.31649833333333,28.47247333333333,0 77.31645499999999,28.472868333333334,0 77.31640999999999,28.473261666666666,0 77.31638833333334,28.47345833333333,0 77.31634666666667,28.473851666666665,0 77.31630666666666,28.474243333333334,0 </coordinates>
      </LineString>
    </Placemark>
    <Placemark>
      <name>Reference Track</name>
      <Style>
        <LineStyle>
          <color>ffff0000</color>
          <width>6</width>
        </LineStyle>
      </Style>
      <LineString>
        <tessellate>1</tessellate>
        <coordinates>
77.31619,28.475408333333334,0 77.316155,28.475796666666664,0 77.31611833333334,28.476186666666663,0 </coordinates>
      </LineString>
    </Placemark>
    <Placemark>
      <name>Recorded Track</name>
      <Style>
        <LineStyle>
          <color>ff0000ff</color>
          <width>6</width>
        </LineStyle>
      </Style>
      <LineString>
        <tessellate>1</tessellate>
        <coordinates>
77.31301,28.38778,0 77.31308,28.38696,0 77.31316,28.386149999999997,0 77.31323,28.385339999999996,0 77.31411,28.375420000000002,0 77.3142,28.374919999999996,0 77.31424,28.37452,0 77.31432,28.37389,0 77.31439999999999,28.37325,0 77.31448,28.37261,0 </coordinates>
      </LineString>
    </Placemark>
    <Placemark>
      <name>Video @ 1044102919044</name>
      <description>&lt;video width="400" controls&gt;&lt;source src="videos/vid_1773378478394.mp4" type="video/mp4"&gt;&lt;/video&gt;&lt;br/&gt;&lt;b&gt;Description:&lt;/b&gt; video1</description>
      <Point>
        <coordinates>77.31323,28.385339999999996,0</coordinates>
      </Point>
    </Placemark>
    <Placemark>
      <name>Reference Track</name>
      <Style>
        <LineStyle>
          <color>ffff0000</color>
          <width>6</width>
        </LineStyle>
      </Style>
      <LineString>
        <tessellate>1</tessellate>
        <coordinates>
77.31844833333334,28.458616666666664,0 77.31834333333333,28.45900166666667,0 77.31823833333333,28.459386666666667,0 77.31812833333333,28.459770000000002,0 77.31807333333333,28.459960000000002,0 77.317965,28.460339999999995,0 77.31786166666667,28.46071833333333,0 77.31776166666667,28.46109666666667,0 77.31771166666667,28.46128666666667,0 77.31761166666666,28.461668333333332,0 77.317515,28.46205166666667,0 77.31742,28.46244,0 77.31733,28.46283,0 77.31725,28.46322,0 77.31718333333333,28.463611666666665,0 77.317155,28.463808333333336,0 77.31710333333334,28.46420333333333,0 77.31706333333334,28.464600000000004,0 77.31703,28.464996666666668,0 77.31699833333333,28.465391666666665,0 77.316965,28.465784999999997,0 77.31693166666668,28.466178333333332,0 77.31689833333333,28.466571666666663,0 77.31688333333334,28.466768333333334,0 77.31685666666667,28.467158333333334,0 77.31683166666667,28.46755,0 77.31680833333333,28.46794166666667,0 77.316795,28.46833333333333,0 77.316785,28.468723333333333,0 77.31677833333333,28.469113333333333,0 77.31677166666667,28.469506666666668,0 77.31676666666667,28.469703333333335,0 77.31675166666668,28.470098333333333,0 77.31672499999999,28.470494999999996,0 77.31668833333333,28.47089,0 77.31664500000001,28.471284999999998,0 77.316595,28.47168333333333,0 77.31654666666667,28.472078333333336,0 77.31649833333333,28.47247333333333,0 77.31645499999999,28.472868333333334,0 77.31640999999999,28.473261666666666,0 77.31638833333334,28.47345833333333,0 77.31634666666667,28.473851666666665,0 77.31630666666666,28.474243333333334,0 </coordinates>
      </LineString>
    </Placemark>
    <Placemark>
      <name>Reference Track</name>
      <Style>
        <LineStyle>
          <color>ffff0000</color>
          <width>6</width>
        </LineStyle>
      </Style>
      <LineString>
        <tessellate>1</tessellate>
        <coordinates>
77.31619,28.475408333333334,0 77.316155,28.475796666666664,0 77.31611833333334,28.476186666666663,0 </coordinates>
      </LineString>
    </Placemark>
    <Placemark>
      <name>Recorded Track</name>
      <Style>
        <LineStyle>
          <color>ff0000ff</color>
          <width>6</width>
        </LineStyle>
      </Style>
      <LineString>
        <tessellate>1</tessellate>
        <coordinates>
77.30590000000001,28.3084,0 77.30649,28.3084,0 77.30577,28.392159999999997,0 77.30565,28.39222,0 77.30542,28.392249999999997,0 77.305,28.392260000000004,0 77.30414,28.39221,0 77.30328,28.392159999999997,0 77.30327000000001,28.392279999999996,0 77.30332,28.392279999999996,0 </coordinates>
      </LineString>
    </Placemark>
    <Placemark>
      <name>Video @ 1044102919539</name>
      <description>&lt;video width="400" controls&gt;&lt;source src="videos/vid_1773378644113.mp4" type="video/mp4"&gt;&lt;/video&gt;&lt;br/&gt;&lt;b&gt;Description:&lt;/b&gt; video2</description>
      <Point>
        <coordinates>77.30649,28.3084,0</coordinates>
      </Point>
    </Placemark>
  </Document>
</kml>