<?xml version="1.0" encoding="UTF-8"?>
<kml xmlns="http://www.opengis.net/kml/2.2">
<Document>
<Placemark>
<name>Reference Track</name>
<Style><LineStyle><color>ffff0000</color><width>6</width></LineStyle></Style>
<LineString><tessellate>1</tessellate><coordinates>
77.33318,28.406541666666666,0 77.33314166666668,28.406668333333332,0 77.33310333333334,28.406795000000002,0 77.33306333333333,28.40692166666667,0 77.33302499999999,28.407048333333332,0 </coordinates></LineString>
</Placemark>
<Placemark>
<name>Reference Track</name>
<Style><LineStyle><color>ffff0000</color><width>6</width></LineStyle></Style>
<LineString><tessellate>1</tessellate><coordinates>
77.33272666666667,28.408054999999997,0 77.33264833333332,28.408305000000002,0 77.33257333333333,28.408560000000005,0 </coordinates></LineString>
</Placemark>
<Placemark>
<name>Recorded Track</name>
<Style><LineStyle><color>ff0000ff</color><width>6</width></LineStyle></Style>
<LineString><tessellate>1</tessellate><coordinates>
77.31367,28.380319999999998,0 77.31374000000001,28.37944,0 77.31381,28.37856,0 77.31388,28.37767,0 77.31396,28.376789999999996,0 77.31403,28.375909999999998,0 77.31411,28.375420000000002,0 </coordinates></LineString>
</Placemark>
</Document></kml>